YAOGAN-43 01D           
1 60461U 24148D   26068.43560480  .00010676  00000+0  37766-3 0  9999
2 60461  35.0010  61.7102 0002556 326.2473  33.8080 15.28369377 87008
STARLINK-34616          
1 66320U 25253B   26068.72021285  .00041047  00000+0  14923-2 0  9999
2 66320  43.0023 211.9475 0001173 258.2993 101.7727 15.27592386 20331
